SPACEMOBILE-004         
1 61049U 24163E   26185.97531233  .00026055  00000+0  11767-2 0  9992
2 61049  52.9646 227.1235 0007463 189.3572 170.7284 15.20799201100478
CZ-8A R/B               
1 66004U 25231K   26185.66036645  .00000053  00000+0  77162-4 0  9991
2 66004  50.0053 324.9779 0116496 285.5204  73.2874 14.30160215 37447
SZ-21 MODULE            
1 66515U 25246C   26186.07246034  .00065007  00000+0  36962-3 0  9997
2 66515  41.4704 195.8059 0005833 145.8574 214.2647 15.78017716 36564
SPACEMOBILE-006         
1 67232U 25309A   26186.20760175  .00002706  00000+0  14422-3 0  9990
2 67232  52.9961 249.0893 0010742 182.6620 177.4319 15.18640214 29339
SPACEMOBILE-008         
1 69589U 26139A   26185.97871737  .00000547  00000+0  47782-4 0  9996
2 69589  52.9937 181.7914 0004531  31.4553 328.6708 15.12791825  2679
SPACEMOBILE-009         
1 69590U 26139B   26185.97995895  .00000563  00000+0  48807-4 0  9997
2 69590  52.9927 181.7949 0004740  26.4443 333.6789 15.12685143  2672
SPACEMOBILE-010         
1 69591U 26139C   26185.98193164  .00000605  00000+0  51397-4 0  9993
2 69591  52.9932 181.8095 0004617  17.3022 342.8125 15.12516354  2681
